{"type": "FeatureCollection", "features": [ {"type": "Feature", "properties": {"norad_id": 52984, "name": "COSMOS 2557 (706K)", "group": "gnss", "lat": -9.390194386945105, "lon": -43.29281017543631, "alt_km": 19121.236636896552, "timestamp": "2025-12-06T16:45:42.966710+00:00", "meta": {"OBJECT_NAME": "COSMOS 2557 (706K)", "OBJECT_ID": "2022-075A", "EPOCH": "2025-12-06T05:49:32.081952", "MEAN_MOTION": 2.13101755, "ECCENTRICITY": 0.00137149, "INCLINATION": 64.4134, "RA_OF_ASC_NODE": 321.2801, "ARG_OF_PERICENTER": 276.7989, "MEAN_ANOMALY": 83.0403, "EPHEMERIS_TYPE": 0, "CLASSIFICATION_TYPE": "U", "NORAD_CAT_ID": 52984, "ELEMENT_SET_NO": 999, "REV_AT_EPOCH": 2660, "BSTAR": 0, "MEAN_MOTION_DOT": -5.1e-07, "MEAN_MOTION_DDOT": 0}, "tle": {"line1": "1 52984U 22075A   25340.24273243 -.00000051  00000+0  00000+0 0  9990", "line2": "2 52984  64.4134 321.2801 0013714 276.7989  83.0403  2.13101755 26600"}}, "geometry": {"type": "Point", "coordinates": [-43.29281017543631, -9.390194386945105]}}, {"type": "Feature", "properties": {"norad_id": 54031, "name": "COSMOS 2559 (707K)", "group": "gnss", "lat": 45.10927721756955, "lon": 112.55567446143219, "alt_km": 19111.563745825715, "timestamp": "2025-12-06T16:45:42.966724+00:00", "meta": {"OBJECT_NAME": "COSMOS 2559 (707K)", "OBJECT_ID": "2022-130A", "EPOCH": "2025-12-03T17:10:26.893920", "MEAN_MOTION": 2.13101235, "ECCENTRICITY": 0.00120262, "INCLINATION": 64.3873, "RA_OF_ASC_NODE": 321.4588, "ARG_OF_PERICENTER": 192.7508, "MEAN_ANOMALY": 167.2215, "EPHEMERIS_TYPE": 0, "CLASSIFICATION_TYPE": "U", "NORAD_CAT_ID": 54031, "ELEMENT_SET_NO": 999, "REV_AT_EPOCH": 2452, "BSTAR": 0, "MEAN_MOTION_DOT": -4.4e-07, "MEAN_MOTION_DDOT": 0}, "tle": {"line1": "1 54031U 22130A   25337.71558905 -.00000044  00000+0  00000+0 0  9998", "line2": "2 54031  64.3873 321.4588 0012026 192.7508 167.2215  2.13101235 24525"}}, "geometry": {"type": "Point", "coordinates": [112.55567446143219, 45.10927721756955]}}, {"type": "Feature", "properties": {"norad_id": 54377, "name": "COSMOS 2564 (761)", "group": "gnss", "lat": -56.883706166988745, "lon": 65.48225436782592, "alt_km": 19119.602846218382, "timestamp": "2025-12-06T16:45:42.966736+00:00", "meta": {"OBJECT_NAME": "COSMOS 2564 (761)", "OBJECT_ID": "2022-161A", "EPOCH": "2025-12-05T21:44:52.430496", "MEAN_MOTION": 2.13101969, "ECCENTRICITY": 0.00086841, "INCLINATION": 64.7377, "RA_OF_ASC_NODE": 199.126, "ARG_OF_PERICENTER": 205.8227, "MEAN_ANOMALY": 154.2251, "EPHEMERIS_TYPE": 0, "CLASSIFICATION_TYPE": "U", "NORAD_CAT_ID": 54377, "ELEMENT_SET_NO": 999, "REV_AT_EPOCH": 2351, "BSTAR": 0, "MEAN_MOTION_DOT": 8e-07, "MEAN_MOTION_DDOT": 0}, "tle": {"line1": "1 54377U 22161A   25339.90616239  .00000080  00000+0  00000+0 0  9992", "line2": "2 54377  64.7377 199.1260 0008684 205.8227 154.2251  2.13101969 23515"}}, "geometry": {"type": "Point", "coordinates": [65.48225436782592, -56.883706166988745]}}, {"type": "Feature", "properties": {"norad_id": 55268, "name": "GPS BIII-6  (PRN 28)", "group": "gnss", "lat": 30.865069786109814, "lon": -48.59057700733525, "alt_km": 20186.75558060519, "timestamp": "2025-12-06T16:45:42.966747+00:00", "meta": {"OBJECT_NAME": "GPS BIII-6  (PRN 28)", "OBJECT_ID": "2023-009A", "EPOCH": "2025-12-03T18:12:38.807136", "MEAN_MOTION": 2.00556312, "ECCENTRICITY": 0.00036355, "INCLINATION": 55.1062, "RA_OF_ASC_NODE": 156.1984, "ARG_OF_PERICENTER": 358.5946, "MEAN_ANOMALY": 180.1179, "EPHEMERIS_TYPE": 0, "CLASSIFICATION_TYPE": "U", "NORAD_CAT_ID": 55268, "ELEMENT_SET_NO": 999, "REV_AT_EPOCH": 2132, "BSTAR": 0, "MEAN_MOTION_DOT": 9.9e-07, "MEAN_MOTION_DDOT": 0}, "tle": {"line1": "1 55268U 23009A   25337.75878249  .00000099  00000+0  00000+0 0  9996", "line2": "2 55268  55.1062 156.1984 0003635 358.5946 180.1179  2.00556312 21327"}}, "geometry": {"type": "Point", "coordinates": [-48.59057700733525, 30.865069786109814]}}, {"type": "Feature", "properties": {"norad_id": 56564, "name": "BEIDOU-3 G4 (C62)", "group": "gnss", "lat": -0.07134540692432959, "lon": 127.1881040290282, "alt_km": 35777.97609309988, "timestamp": "2025-12-06T16:45:42.966759+00:00", "meta": {"OBJECT_NAME": "BEIDOU-3 G4 (C62)", "OBJECT_ID": "2023-066A", "EPOCH": "2025-12-06T05:51:56.901312", "MEAN_MOTION": 1.00270951, "ECCENTRICITY": 0.00031811, "INCLINATION": 0.8299, "RA_OF_ASC_NODE": 301.5074, "ARG_OF_PERICENTER": 236.7892, "MEAN_ANOMALY": 145.0454, "EPHEMERIS_TYPE": 0, "CLASSIFICATION_TYPE": "U", "NORAD_CAT_ID": 56564, "ELEMENT_SET_NO": 999, "REV_AT_EPOCH": 946, "BSTAR": 0, "MEAN_MOTION_DOT": -1.02e-06, "MEAN_MOTION_DDOT": 0}, "tle": {"line1": "1 56564U 23066A   25340.24440858 -.00000102  00000+0  00000+0 0  9994", "line2": "2 56564   0.8299 301.5074 0003181 236.7892 145.0454  1.00270951  9463"}}, "geometry": {"type": "Point", "coordinates": [127.1881040290282, -0.07134540692432959]}}, {"type": "Feature", "properties": {"norad_id": 56759, "name": "NVS-01 (IRNSS-1J)", "group": "gnss", "lat": -1.0826353084830032, "lon": 96.58390003612601, "alt_km": 35823.162778009915, "timestamp": "2025-12-06T16:45:42.966774+00:00", "meta": {"OBJECT_NAME": "NVS-01 (IRNSS-1J)", "OBJECT_ID": "2023-076A", "EPOCH": "2025-12-06T05:43:20.225856", "MEAN_MOTION": 1.00265918, "ECCENTRICITY": 0.00087122, "INCLINATION": 2.635, "RA_OF_ASC_NODE": 251.8357, "ARG_OF_PERICENTER": 7.3647, "MEAN_ANOMALY": 31.4135, "EPHEMERIS_TYPE": 0, "CLASSIFICATION_TYPE": "U", "NORAD_CAT_ID": 56759, "ELEMENT_SET_NO": 999, "REV_AT_EPOCH": 918, "BSTAR": 0, "MEAN_MOTION_DOT": -3.26e-06, "MEAN_MOTION_DDOT": 0}, "tle": {"line1": "1 56759U 23076A   25340.23842854 -.00000326  00000+0  00000+0 0  9990", "line2": "2 56759   2.6350 251.8357 0008712   7.3647  31.4135  1.00265918  9183"}}, "geometry": {"type": "Point", "coordinates": [96.58390003612601, -1.0826353084830032]}}, {"type": "Feature", "properties": {"norad_id": 57517, "name": "COSMOS 2569 (703K)", "group": "gnss", "lat": -49.866038472581046, "lon": -67.66689158701605, "alt_km": 19118.820524493658, "timestamp": "2025-12-06T16:45:42.966787+00:00", "meta": {"OBJECT_NAME": "COSMOS 2569 (703K)", "OBJECT_ID": "2023-114A", "EPOCH": "2025-12-01T16:42:34.469856", "MEAN_MOTION": 2.13103822, "ECCENTRICITY": 0.0010109, "INCLINATION": 65.1883, "RA_OF_ASC_NODE": 79.2867, "ARG_OF_PERICENTER": 287.0179, "MEAN_ANOMALY": 72.8703, "EPHEMERIS_TYPE": 0, "CLASSIFICATION_TYPE": "U", "NORAD_CAT_ID": 57517, "ELEMENT_SET_NO": 999, "REV_AT_EPOCH": 1805, "BSTAR": 0, "MEAN_MOTION_DOT": -1.6e-07, "MEAN_MOTION_DDOT": 0}, "tle": {"line1": "1 57517U 23114A   25335.69623229 -.00000016  00000+0  00000+0 0  9999", "line2": "2 57517  65.1883  79.2867 0010109 287.0179  72.8703  2.13103822 18055"}}, "geometry": {"type": "Point", "coordinates": [-67.66689158701605, -49.866038472581046]}}, {"type": "Feature", "properties": {"norad_id": 58654, "name": "BEIDOU-3 M28 (C50)", "group": "gnss", "lat": 49.96147256375361, "lon": -165.7521166666446, "alt_km": 21527.354199798792, "timestamp": "2025-12-06T16:45:42.966798+00:00", "meta": {"OBJECT_NAME": "BEIDOU-3 M28 (C50)", "OBJECT_ID": "2023-207A", "EPOCH": "2025-12-03T07:26:02.398272", "MEAN_MOTION": 1.86229561, "ECCENTRICITY": 0.00020314, "INCLINATION": 55.5764, "RA_OF_ASC_NODE": 68.9209, "ARG_OF_PERICENTER": 265.1091, "MEAN_ANOMALY": 94.871, "EPHEMERIS_TYPE": 0, "CLASSIFICATION_TYPE": "U", "NORAD_CAT_ID": 58654, "ELEMENT_SET_NO": 999, "REV_AT_EPOCH": 1319, "BSTAR": 0, "MEAN_MOTION_DOT": -5.1e-07, "MEAN_MOTION_DDOT": 0}, "tle": {"line1": "1 58654U 23207A   25337.30974998 -.00000051  00000+0  00000+0 0  9996", "line2": "2 58654  55.5764  68.9209 0002031 265.1091  94.8710  1.86229561 13199"}}, "geometry": {"type": "Point", "coordinates": [-165.7521166666446, 49.96147256375361]}}, {"type": "Feature", "properties": {"norad_id": 58655, "name": "BEIDOU-3 M26 (C48)", "group": "gnss", "lat": -49.68759900613502, "lon": -57.408299978292774, "alt_km": 21523.943609762948, "timestamp": "2025-12-06T16:45:42.966809+00:00", "meta": {"OBJECT_NAME": "BEIDOU-3 M26 (C48)", "OBJECT_ID": "2023-207B", "EPOCH": "2025-12-03T02:34:45.227424", "MEAN_MOTION": 1.86231091, "ECCENTRICITY": 0.00034591, "INCLINATION": 55.5782, "RA_OF_ASC_NODE": 68.9139, "ARG_OF_PERICENTER": 250.5367, "MEAN_ANOMALY": 109.429, "EPHEMERIS_TYPE": 0, "CLASSIFICATION_TYPE": "U", "NORAD_CAT_ID": 58655, "ELEMENT_SET_NO": 999, "REV_AT_EPOCH": 1317, "BSTAR": 0, "MEAN_MOTION_DOT": -5e-07, "MEAN_MOTION_DDOT": 0}, "tle": {"line1": "1 58655U 23207B   25337.10746791 -.00000050  00000+0  00000+0 0  9992", "line2": "2 58655  55.5782  68.9139 0003459 250.5367 109.4290  1.86231091 13176"}}, "geometry": {"type": "Point", "coordinates": [-57.408299978292774, -49.68759900613502]}}, {"type": "Feature", "properties": {"norad_id": 59598, "name": "GSAT0225 (GALILEO 29)", "group": "gnss", "lat": 7.794384675810297, "lon": -79.05000879478298, "alt_km": 23215.43095602541, "timestamp": "2025-12-06T16:45:42.966820+00:00", "meta": {"OBJECT_NAME": "GSAT0225 (GALILEO 29)", "OBJECT_ID": "2024-079A", "EPOCH": "2025-12-04T01:47:23.955648", "MEAN_MOTION": 1.70474518, "ECCENTRICITY": 0.0002, "INCLINATION": 54.9978, "RA_OF_ASC_NODE": 106.5374, "ARG_OF_PERICENTER": 171.9845, "MEAN_ANOMALY": 188.0819, "EPHEMERIS_TYPE": 0, "CLASSIFICATION_TYPE": "U", "NORAD_CAT_ID": 59598, "ELEMENT_SET_NO": 999, "REV_AT_EPOCH": 999, "BSTAR": 0, "MEAN_MOTION_DOT": 1.5e-07, "MEAN_MOTION_DDOT": 0}, "tle": {"line1": "1 59598U 24079A   25338.07458282  .00000015  00000+0  00000+0 0  9999", "line2": "2 59598  54.9978 106.5374 0002000 171.9845 188.0819  1.70474518  9992"}}, "geometry": {"type": "Point", "coordinates": [-79.05000879478298, 7.794384675810297]}}]}